0 ORBCOMM FM 40
1 33065U 08031F   19150.88155646 -.00000075 +00000-0 +19533-4 0  9996
2 33065 048.4459 317.4619 0008206 323.2824 151.3389 14.73352283587945
0 JASON 2
1 33105U 08032A   19150.94844087 -.00000080 +00000-0 -71128-4 0  9998
2 33105 066.0427 063.5517 0008312 271.4900 192.3359 12.87629799512294
0 COSMOS 2441
1 33272U 08037A   19150.88546946 -.00000010  00000-0  78639-5 0  9991
2 33272  97.9933 130.5208 0016416   0.0055   0.1138 14.51802797574436
0 RAPIDEYE 2
1 33312U 08040A   19150.92476015 -.00000205 +00000-0 -19273-4 0  9999
2 33312 097.7458 220.3062 0011032 191.4010 168.6922 14.82134844580794
0 RAPIDEYE 5
1 33313U 08040B   19150.74638789  .00000018  00000-0  87723-5 0  9994
2 33313  97.7532 218.9687 0017052  66.7290 293.5716 14.81904163580715
0 RAPIDEYE 1
1 33314U 08040C   19150.86929375 -.00000431 +00000-0 -47361-4 0  9996
2 33314 097.7482 220.0107 0023992 207.6774 152.3139 14.82117606580770
0 RAPIDEYE 3
1 33315U 08040D   19150.90502548 +.00000220 +00000-0 +33988-4 0  9995
2 33315 097.7540 219.0132 0010415 142.2011 217.9898 14.82134702580749
0 RAPIDEYE 4
1 33316U 08040E   19150.89276631 +.00000114 +00000-0 +20689-4 0  9991
2 33316 097.7574 218.8545 0010674 081.8979 278.3420 14.82134744580737
0 HJ-1A
1 33320U 08041A   19150.90583992 +.00000052 +00000-0 +14569-4 0  9991
2 33320 097.8392 209.8387 0024338 239.3766 120.5026 14.77018366577989
0 HJ-1B
1 33321U 08041B   19150.93574980 +.00000059 +00000-0 +15626-4 0  9994
2 33321 097.8463 211.7206 0033187 259.6330 100.1140 14.77130895577988
0 GEOEYE 1
1 33331U 08042A   19150.85714411 -.00000035 +00000-0 +22778-5 0  9994
2 33331 098.0973 225.6771 0009426 176.9663 183.1582 14.64391018573392
0 DEMOSAT/FALCON 1
1 33393U 08048A   19150.01276884  .00000747  00000-0  12211-4 0  9992
2 33393   9.3470   8.4531 0013234 340.8327  19.1374 14.84738829578680
0 THEOS
1 33396U 08049A   19150.95140139 +.00000102 +00000-0 +68211-4 0  9998
2 33396 098.6856 218.3046 0000992 096.5880 019.9514 14.20048391552630
0 SJ-6E
1 33408U 08053A   19150.83823871  .00000720  00000-0  72678-4 0  9993
2 33408  97.7223 127.3045 0019548  25.4085 334.8089 14.94004347577171
0 SJ-6F
1 33409U 08053B   19150.85488819 -.00000069  00000-0 -10085-5 0  9998
2 33409  97.7061 129.2558 0016371 353.3943   6.7047 14.94889263577468
0 SKYMED 3
1 33412U 08054A   19150.83645118 +.00000062 +00000-0 +14376-4 0  9995
2 33412 097.8921 334.4809 0001415 091.3368 268.8008 14.82153829573216
0 SHIYUAN 3 (SY-3)
1 33433U 08056A   19150.89993516 -.00000024 +00000-0 +80439-5 0  9997
2 33433 098.6828 147.5089 0014638 119.5312 240.7337 14.29727656551261
0 CHUANG XIN 1-02(CX-1-02)
1 33434U 08056B   19150.94791579 -.00000018 +00000-0 +10271-4 0  9998
2 33434 098.6868 147.2462 0015239 118.4511 241.8216 14.29438968551189
0 YAOGAN 4
1 33446U 08061A   19150.89848584  .00000044  00000-0  13125-4 0  9999
2 33446  97.6730 118.9655 0017052 141.0935 219.1506 14.76954074565217
0 GOSAT (IBUKI)
1 33492U 09002A   19150.32483162  .00000042  00000-0  15838-4 0  9992
2 33492  98.0321 263.0374 0001271 104.6989 255.4357 14.67568683554277
0 PRISM (HITOMI)
1 33493U 09002B   19150.80857778  .00000403  00000-0  40921-4 0  9996
2 33493  98.1232  71.0467 0013471 244.1973 115.7858 14.96639824562325
0 SPRITE-SAT (RISING)
1 33494U 09002C   19150.47410413 +.00000057 +00000-0 +17770-4 0  9992
2 33494 098.3877 326.3560 0002519 248.9278 111.1659 14.71567560554852
0 KAGAYAKI
1 33495U 09002D   19150.55464225 +.00000002 +00000-0 +89208-5 0  9998
2 33495 098.3857 335.5226 0006940 296.4321 063.6172 14.72128530555214
0 SOHLA-1 (MAIDO-1)
1 33496U 09002E   19150.54260939 +.00000028 +00000-0 +13063-4 0  9997
2 33496 098.3866 329.2870 0004989 272.6833 087.3802 14.71815931555024
0 SDS-1
1 33497U 09002F   19150.89032096 +.00000056 +00000-0 +17942-4 0  9998
2 33497 098.3713 312.7565 0002764 131.3336 228.8107 14.70524271554912
0 STARS (KUKAI)
1 33498U 09002G   19150.61098413 +.00000171 +00000-0 +30759-4 0  9993
2 33498 098.3096 359.1656 0009914 224.9517 135.0892 14.78981725556761
0 KKS-1 (KISEKI)
1 33499U 09002H   19150.88942603 +.00000083 +00000-0 +20244-4 0  9992
2 33499 098.3515 348.9969 0007867 266.3932 093.6376 14.75437027556020
0 KORONAS-FOTON
1 33504U 09003A   19150.82551362  .00000129  00000-0  50569-5 0  9997
2 33504  82.4434 244.4566 0019741 161.7188 198.4758 15.15407866569383
0 NOAA 19
1 33591U 09005A   19150.91586857 +.00000080 +00000-0 +68563-4 0  9990
2 33591 099.1791 141.5858 0015002 072.5512 287.7297 14.12354640530999
0 RISAT-2
1 34807U 09019A   19150.78440234  .00002330  00000-0  67508-4 0  9997
2 34807  41.2139  51.9522 0003099 164.5210 298.4683 15.37965241567717
0 YAOGAN 6
1 34839U 09021A   19150.64924069  .00000371  00000-0  16681-4 0  9992
2 34839  97.0553 175.5761 0026644 310.9975  48.8960 15.26559738561251
0 COSMOS 2451
1 35498U 09036A   19150.74077541 +.00000009 +00000-0 -97820-5 0  9999
2 35498 082.4898 249.6927 0007768 052.5423 307.6341 12.40818121448411
0 COSMOS 2452
1 35499U 09036B   19150.70670265  .00000011  00000-0  87145-5 0  9999
2 35499  82.4915 242.8436 0015735 359.4308   0.6747 12.42916773449062
0 COSMOS 2453
1 35500U 09036C   19150.76314440  .00000024  00000-0  10060-3 0  9992
2 35500  82.4884 247.1040 0007054  17.5475 342.5847 12.41460569448650
0 RAZAKSAT
1 35578U 09037A   19150.22293165  .00000589  00000-0  55225-5 0  9999
2 35578   8.9803 155.8251 0017463  47.0974 313.0809 14.66899025530166
0 COSMOS 2454
1 35635U 09039A   19150.87006613 +.00000020 +00000-0 +31810-5 0  9990
2 35635 082.9550 178.5000 0020837 064.4721 295.8599 13.89639490500035
0 STERKH
1 35636U 09039B   19150.60684460  .00000060  00000-0  35923-4 0  9996
2 35636  82.9559 178.2452 0021484  60.3612 299.9688 13.89839280500039
0 DEIMOS 1
1 35681U 09041A   19150.92299305 +.00000086 +00000-0 +21318-4 0  9995
2 35681 097.8660 033.4182 0001465 145.5747 214.5568 14.71786799527971
0 DUBAISAT 1
1 35682U 09041B   19150.59087792  .00000021  00000-0  11476-4 0  9997
2 35682  97.7312 345.0181 0012515  37.6397 322.5702 14.68732615526777
0 DMC 2
1 35683U 09041C   19150.90647369 -.00000005 +00000-0 +66969-5 0  9996
2 35683 097.7399 008.4421 0001161 083.1544 276.9806 14.71099114527799
0 APRIZESAT 4
1 35684U 09041D   19150.90617915 +.00000030 +00000-0 +11736-4 0  9999
2 35684 098.2242 114.7698 0046476 326.0556 033.7682 14.79206512530436
0 NANOSAT 1B
1 35685U 09041E   19150.92148455 +.00000054 +00000-0 +13676-4 0  9991
2 35685 098.2875 161.5570 0057465 267.4614 092.0020 14.84200002531924
0 APRIZESAT 3
1 35686U 09041F   19150.66294631  .00000059  00000-0  13153-4 0  9996
2 35686  98.2354 189.4730 0072174 217.0426 142.5795 14.87302523533083
0 METEOR-M
1 35865U 09049A   19150.88444957  .00000015  00000-0  25295-4 0  9997
2 35865  98.4117 149.9066 0001569 200.2027 159.9089 14.22196391503409
0 STERKH 2
1 35866U 09049B   19150.88190924  .00000005  00000-0  20526-4 0  9991
2 35866  98.3952 151.9033 0002721 192.8580 167.2530 14.22952048503631
0 FREGAT/IRIS
1 35867U 09049C   19150.76449400  .00010019  00000-0  81187-4 0  9991
2 35867  96.9745 183.5536 0004691  52.5941  37.6028 15.70951998545686
0 TATIANA 2
1 35868U 09049D   19150.92828737 +.00000014 +00000-0 +24700-4 0  9996
2 35868 098.4002 151.5358 0003762 189.3179 170.7931 14.22849598503502
0 UGATUSAT
1 35869U 09049E   19150.87169023 -.00000012  00000-0  13142-4 0  9994
2 35869  98.4073 148.9566 0003769 211.4011 148.6943 14.22413411503475
0 SUMBANDILA
1 35870U 09049F   19150.71143556  .00005377  00000-0  63126-4 0  9997
2 35870  97.0567 173.3786 0000907  39.3345  24.5522 15.61906118544143
0 BLITS
1 35871U 09049G   19150.92272891 -.00000022 +00000-0 +88364-5 0  9991
2 35871 098.4210 146.0937 0002623 213.5277 146.5735 14.21793649502644
0 OCEANSAT 2
1 35931U 09051A   19150.51460772 -.00000055 +00000-0 -28033-5 0  9997
2 35931 098.2997 245.8852 0002705 125.7218 234.4229 14.50836763512648
0 SWISSCUBE
1 35932U 09051B   19150.70214272  .00000102  00000-0  34117-4 0  9991
2 35932  98.5862 316.1216 0006898 215.9236 144.1498 14.56279193514010
0 BEESAT
1 35933U 09051C   19150.91239441 +.00000083 +00000-0 +29761-4 0  9997
2 35933 098.5890 318.0873 0004893 227.7893 132.2889 14.56369129514072
0 UWE-2
1 35934U 09051D   19150.43408725 +.00000075 +00000-0 +28278-4 0  9991
2 35934 098.5842 313.7415 0005485 235.3638 124.7041 14.55855013513889
0 ITUPSAT 1
1 35935U 09051E   19150.68426828 +.00000066 +00000-0 +26464-4 0  9998
2 35935 098.6001 318.0919 0007208 228.0892 131.9691 14.55529846513840
0 RUBIN 9.1/RUBIN 9.2/PSLV
1 35936U 09051F   19149.93663787  .00000005  00000-0  13971-4 0  9994
2 35936  98.0478 134.4468 0054084 307.1937  52.4384 14.41827231509323
0 WORLDVIEW 2
1 35946U 09055A   19150.85857247 -.00000057 +00000-0 -46804-5 0  9999
2 35946 098.4355 226.8773 0002772 073.1598 286.9869 14.37612837505908
0 DMSP 5D-3 F18 (USA 210)
1 35951U 09057A   19150.87370997 +.00000099 +00000-0 +75321-4 0  9990
2 35951 098.6198 149.2829 0011672 029.5754 330.6077 14.13194117269500
0 SMOS
1 36036U 09059A   19150.56190342 +.00000012 +00000-0 +17720-4 0  9991
2 36036 098.4448 338.0914 0001244 088.5957 271.5374 14.39751658502980
0 PROBA 2
1 36037U 09059B   19150.59228395 +.00000014 +00000-0 +14211-4 0  9999
2 36037 098.2341 342.0106 0012283 305.6889 054.3163 14.53070824507490
0 SJ-11-01
1 36088U 09061A   19150.86178596 +.00000014 +00000-0 +12414-4 0  9998
2 36088 098.0377 191.3795 0011051 192.3462 167.7465 14.60088880508632
0 COSMOS 2455
1 36095U 09063A   19150.89421627 -.00000064  00000-0  84591-5 0  9999
2 36095  67.1495  31.4920 0009216 273.3063  86.6967 13.96755359485785
0 YAOGAN 7
1 36110U 09069A   19150.90015824 +.00000028 +00000-0 +12292-4 0  9990
2 36110 098.2713 333.3100 0024419 003.8044 356.3351 14.75115889509969
0 WISE
1 36119U 09071A   19150.72075485 +.00000613 +00000-0 +23967-4 0  9992
2 36119 097.3733 186.0396 0001617 352.4069 007.7147 15.29596174525132
